$$SOE
2459580.500000000, A.D. 2022-Jan-01 00:00:00.0000, 2.785634719699370E+08, 1.770478015906147E+08, -7.495741188275595E+07,
2459587.500000000, A.D. 2022-Jan-08 00:00:00.0000, 2.726558934191411E+08, 1.880533832039628E+08, -7.308873925829612E+07,
2459594.500000000, A.D. 2022-Jan-15 00:00:00.0000, 2.664091706737580E+08, 1.988249954069794E+08, -7.112914001169236E+07,
2459601.500000000, A.D. 2022-Jan-22 00:00:00.0000, 2.598332971048647E+08, 2.093508998870268E+08, -6.908164576947302E+07,
2459608.500000000, A.D. 2022-Jan-29 00:00:00.0000, 2.529386721915589E+08, 2.196199270229641E+08, -6.694939129679115E+07,
2459615.500000000, A.D. 2022-Feb-05 00:00:00.0000, 2.457360632271655E+08, 2.296214893483723E+08, -6.473560394031091E+07,
2459622.500000000, A.D. 2022-Feb-12 00:00:00.0000, 2.382365690256033E+08, 2.393455910626480E+08, -6.244359336253895E+07,
2459629.500000000, A.D. 2022-Feb-19 00:00:00.0000, 2.304515845379793E+08, 2.487828360193645E+08, -6.007674131649761E+07,
2459636.500000000, A.D. 2022-Feb-26 00:00:00.0000, 2.223927652889778E+08, 2.579244335555438E+08, -5.763849146000265E+07,
2459643.500000000, A.D. 2022-Mar-05 00:00:00.0000, 2.140719920000827E+08, 2.667622016518871E+08, -5.513233933138285E+07,
2459650.500000000, A.D. 2022-Mar-12 00:00:00.0000, 2.055013358125693E+08, 2.752885674814456E+08, -5.256182256416580E+07,
2459657.500000000, A.D. 2022-Mar-19 00:00:00.0000, 1.966930243541263E+08, 2.834965655117996E+08, -4.993051139130490E+07,
2459664.500000000, A.D. 2022-Mar-26 00:00:00.0000, 1.876594088252887E+08, 2.913798333032202E+08, -4.724199948224497E+07,
2459671.500000000, A.D. 2022-Apr-02 00:00:00.0000, 1.784129323079075E+08, 2.989326051044355E+08, -4.449989515877080E+07,
2459678.500000000, A.D. 2022-Apr-09 00:00:00.0000, 1.689660996831018E+08, 3.061497034155486E+08, -4.170781304397905E+07,
2459685.500000000, A.D. 2022-Apr-16 00:00:00.0000, 1.593314496140707E+08, 3.130265293417959E+08, -3.886936614854835E+07,
2459692.500000000, A.D. 2022-Apr-23 00:00:00.0000, 1.495215274058219E+08, 3.195590529889660E+08, -3.598815820835730E+07,
2459699.500000000, A.D. 2022-Apr-30 00:00:00.0000, 1.395488569272549E+08, 3.257438018176113E+08, -3.306777629726259E+07,
2459706.500000000, A.D. 2022-May-07 00:00:00.0000, 1.294259146982315E+08, 3.315778451556332E+08, -3.011178416675535E+07,
2459713.500000000, A.D. 2022-May-14 00:00:00.0000, 1.191651075649749E+08, 3.370587780756888E+08, -2.712371619844110E+07,
2459720.500000000, A.D. 2022-May-21 00:00:00.0000, 1.087787519475463E+08, 3.421847055504176E+08, -2.410707172146532E+07,
2459727.500000000, A.D. 2022-May-28 00:00:00.0000, 9.827905417903538E+07, 3.469542260768378E+08, -2.106530972591682E+07,
2459734.500000000, A.D. 2022-Jun-04 00:00:00.0000, 8.767809220112397E+07, 3.513664146021088E+08, -1.800184401708047E+07,
2459741.500000000, A.D. 2022-Jun-11 00:00:00.0000, 7.698779873813209E+07, 3.554208048900635E+08, -1.492003881476149E+07,
2459748.500000000, A.D. 2022-Jun-18 00:00:00.0000, 6.621994595628243E+07, 3.591173714703578E+08, -1.182320478874232E+07,
2459755.500000000, A.D. 2022-Jun-25 00:00:00.0000, 5.538613159735361E+07, 3.624565112566766E+08, -8.714595522201434E+06,
2459762.500000000, A.D. 2022-Jul-02 00:00:00.0000, 4.449776667326120E+07, 3.654390248788812E+08, -5.597404405346453E+06,
2459769.500000000, A.D. 2022-Jul-09 00:00:00.0000, 3.356606505815932E+07, 3.680660980084059E+08, -2.474761963700593E+06,
2459776.500000000, A.D. 2022-Jul-16 00:00:00.0000, 2.260203486538796E+07, 3.703392838552149E+08, 6.502664904291332E+05,
2459783.500000000, A.D. 2022-Jul-23 00:00:00.0000, 1.161646935334905E+07, 3.722604869984275E+08, 3.774683110084265E+06,
2459790.500000000, A.D. 2022-Jul-30 00:00:00.0000, 6.199373815971051E+05, 3.738319452642109E+08, 6.895559407806844E+06,
2459797.500000000, A.D. 2022-Aug-06 00:00:00.0000, -1.037722305290724E+07, 3.750562103653825E+08, 1.001003753512830E+07,
2459804.500000000, A.D. 2022-Aug-13 00:00:00.0000, -2.136490908481153E+07, 3.759361301179099E+08, 1.311533126763457E+07,
2459811.500000000, A.D. 2022-Aug-20 00:00:00.0000, -3.233325668715773E+07, 3.764748317732415E+08, 1.620872681808025E+07,
2459818.500000000, A.D. 2022-Aug-27 00:00:00.0000, -4.327264381713495E+07, 3.766757057740914E+08, 1.928758343130013E+07,
2459825.500000000, A.D. 2022-Sep-03 00:00:00.0000, -5.417369282437741E+07, 3.765423898563410E+08, 2.234933374808350E+07,
2459832.500000000, A.D. 2022-Sep-10 00:00:00.0000, -6.502727210087354E+07, 3.760787535536582E+08, 2.539148395046905E+07,
2459839.500000000, A.D. 2022-Sep-17 00:00:00.0000, -7.582449700708123E+07, 3.752888831321143E+08, 2.841161370414825E+07,
2459846.500000000, A.D. 2022-Sep-24 00:00:00.0000, -8.655673007297580E+07, 3.741770669256690E+08, 3.140737590618958E+07,
2459853.500000000, A.D. 2022-Oct-01 00:00:00.0000, -9.721558029046515E+07, 3.727477810637404E+08, 3.437649623122700E+07,
2459860.500000000, A.D. 2022-Oct-08 00:00:00.0000, -1.077929011453298E+08, 3.710056761201845E+08, 3.731677249742560E+07,
2459867.500000000, A.D. 2022-Oct-15 00:00:00.0000, -1.182807883748227E+08, 3.689555658875641E+08, 4.022607405091649E+07,
2459874.500000000, A.D. 2022-Oct-22 00:00:00.0000, -1.286715796815869E+08, 3.666024165938547E+08, 4.310234124533312E+07,
2459881.500000000, A.D. 2022-Oct-29 00:00:00.0000, -1.389578539523615E+08, 3.639513339589533E+08, 4.594358458808093E+07,
2459888.500000000, A.D. 2022-Nov-05 00:00:00.0000, -1.491324279325339E+08, 3.610075508243139E+08, 4.874788359735665E+07,
2459895.500000000, A.D. 2022-Nov-12 00:00:00.0000, -1.591883523663112E+08, 3.577764166198996E+08, 5.151338566592318E+07,
2459902.500000000, A.D. 2022-Nov-19 00:00:00.0000, -1.691189083605822E+08, 3.542633877051071E+08, 5.423830493058686E+07,
2459909.500000000, A.D. 2022-Nov-26 00:00:00.0000, -1.789176037476035E+08, 3.504740181733539E+08, 5.692092110097134E+07,
2459916.500000000, A.D. 2022-Dec-03 00:00:00.0000, -1.885781693160286E+08, 3.464139510951794E+08, 5.955957824095823E+07,
2459923.500000000, A.D. 2022-Dec-10 00:00:00.0000, -1.980945548977620E+08, 3.420889102043023E+08, 6.215268350908174E+07,
2459930.500000000, A.D. 2022-Dec-17 00:00:00.0000, -2.074609253163412E+08, 3.375046919865736E+08, 6.469870586188065E+07,
2459937.500000000, A.D. 2022-Dec-24 00:00:00.0000, -2.166716561153620E+08, 3.326671580901499E+08, 6.719617471248697E+07,
2459944.500000000, A.D. 2022-Dec-31 00:00:00.0000, -2.257213287348624E+08, 3.275822281478347E+08, 6.964367852749227E+07,
2459951.500000000, A.D. 2023-Jan-07 00:00:00.0000, -2.346047250367826E+08, 3.222558739570891E+08, 7.203986343600772E+07,
2459958.500000000, A.D. 2023-Jan-14 00:00:00.0000, -2.433168231690071E+08, 3.166941154991127E+08, 7.438343207825473E+07,
2459965.500000000, A.D. 2023-Jan-21 00:00:00.0000, -2.518527954301362E+08, 3.109030156093588E+08, 7.667314249890029E+07,
2459972.500000000, A.D. 2023-Jan-28 00:00:00.0000, -2.602080044799768E+08, 3.048886730828519E+08, 7.890780673585868E+07,
2459979.500000000, A.D. 2023-Feb-04 00:00:00.0000, -2.683779981216364E+08, 2.986572172209110E+08, 8.108628937436393E+07,
2459986.500000000, A.D. 2023-Feb-11 00:00:00.0000, -2.763585044673274E+08, 2.922148036100661E+08, 8.320750621910244E+07,
2459993.500000000, A.D. 2023-Feb-18 00:00:00.0000, -2.841454275639387E+08, 2.855676102935496E+08, 8.527042302607340E+07,
2460000.500000000, A.D. 2023-Feb-25 00:00:00.0000, -2.917348432275929E+08, 2.787218341561307E+08, 8.727405425975071E+07,
2460007.500000000, A.D. 2023-Mar-04 00:00:00.0000, -2.991229949966348E+08, 2.716836875248418E+08, 8.921746187087703E+07,
2460014.500000000, A.D. 2023-Mar-11 00:00:00.0000, -3.063062901848201E+08, 2.644593949711957E+08, 9.109975409555508E+07,
2460021.500000000, A.D. 2023-Mar-18 00:00:00.0000, -3.132812959964122E+08, 2.570551902513338E+08, 9.292008427028647E+07,
2460028.500000000, A.D. 2023-Mar-25 00:00:00.0000, -3.200447355071127E+08, 2.494773133231647E+08, 9.467764964303097E+07,
2460035.500000000, A.D. 2023-Apr-01 00:00:00.0000, -3.265934830923315E+08, 2.417320078202102E+08, 9.637169017558882E+07,
2460042.500000000, A.D. 2023-Apr-08 00:00:00.0000, -3.329245599239641E+08, 2.338255201937150E+08, 9.800148749570598E+07,
2460049.500000000, A.D. 2023-Apr-15 00:00:00.0000, -3.390351318788141E+08, 2.257640994053621E+08, 9.956636412498435E+07,
2460056.500000000, A.D. 2023-Apr-22 00:00:00.0000, -3.449225080518407E+08, 2.175539941089308E+08, 1.010656825685124E+08,
2460063.500000000, A.D. 2023-Apr-29 00:00:00.0000, -3.505841371367182E+08, 2.092014495601813E+08, 1.024988441981492E+08,
2460070.500000000, A.D. 2023-May-06 00:00:00.0000, -3.560176034347582E+08, 2.007127060203651E+08, 1.038652882350627E+08,
2460077.500000000, A.D. 2023-May-13 00:00:00.0000, -3.612206234723628E+08, 1.920939977468038E+08, 1.051644908478358E+08,
2460084.500000000, A.D. 2023-May-20 00:00:00.0000, -3.661910429956489E+08, 1.833515520672116E+08, 1.063959643044959E+08,
2460091.500000000, A.D. 2023-May-27 00:00:00.0000, -3.709268341522242E+08, 1.744915884967981E+08, 1.075592561588763E+08,
2460098.500000000, A.D. 2023-Jun-03 00:00:00.0000, -3.754260928062072E+08, 1.655203179146853E+08, 1.086539484693001E+08,
2460105.500000000, A.D. 2023-Jun-10 00:00:00.0000, -3.796870359651527E+08, 1.564439417780388E+08, 1.096796570472176E+08,
2460112.500000000, A.D. 2023-Jun-17 00:00:00.0000, -3.837079992306157E+08, 1.472686513063330E+08, 1.106360307229598E+08,
2460119.500000000, A.D. 2023-Jun-24 00:00:00.0000, -3.874874339519399E+08, 1.380006266834905E+08, 1.115227506033702E+08,
2460126.500000000, A.D. 2023-Jul-01 00:00:00.0000, -3.910239038291641E+08, 1.286460370975028E+08, 1.123395293649447E+08,
2460133.500000000, A.D. 2023-Jul-08 00:00:00.0000, -3.943160826388064E+08, 1.192110424306695E+08, 1.130861108025312E+08,
2460140.500000000, A.D. 2023-Jul-15 00:00:00.0000, -3.973627543608454E+08, 1.097017937629488E+08, 1.137622695196871E+08,
2460147.500000000, A.D. 2023-Jul-22 00:00:00.0000, -4.001628121853116E+08, 1.001244316483712E+08, 1.143678103532118E+08,
$$EOE